ADRAS-J                 
1 58992U 24034A   24195.49622702  .00004332  00000+0  40221-3 0  9992
2 58992  98.2139 169.7157 0042531 324.4679  35.3709 14.94299006 21793
